KUIPER-00104            
1 65142U 25171L   25332.66668981 -.00003075  00000+0 -26515-3 0  9997
2 65142  51.8935 244.3303 0004983 188.4256 247.9048 14.93557171  4065
KUIPER-00105            
1 65143U 25171M   25332.50974409  .00006459  00000+0  87370-3 0  9999
2 65143  51.8990 253.0704 0013249 128.6144 231.6007 14.79977576 17806
KUIPER-00106            
1 65144U 25171N   25332.49465809  .00006142  00000+0  55926-3 0  9998
2 65144  51.8929 254.5603 0009912 121.2104 238.9838 14.96306969 17780
KUIPER-00107            
1 65145U 25171P   25332.66668981  .00037579  00000+0  20772-2 0  9992
2 65145  51.8898 239.0266 0006863 169.8646 251.1762 15.13517382  5525
KUIPER-00108            
1 65146U 25171Q   25332.66668981  .00045290  00000+0  59289-2 0  9997
2 65146  51.9009 247.3107 0009442 140.0209 127.9797 14.79913402  5723
KUIPER-00109            
1 65147U 25171R   25332.66668981 -.00349724  00000+0 -32241-1 0  9997
2 65147  51.8982 242.9357 0012468 155.9693 237.5906 14.96109141  4382
KUIPER-00110            
1 65148U 25171S   25332.66668981  .00038223  00000+0  53967-2 0  9994
2 65148  51.8974 254.5332 0011728 133.8791 349.9314 14.76775082  3772
KUIPER-00111            
1 65149U 25171T   25332.50148127 -.00004240  00000+0 -52766-3 0  9994
2 65149  51.8966 260.5270 0009770 139.7776 220.3911 14.79865126 17697
